STARLINK-2736           
1 48640C 21044C   26100.12965278  .00120070  00000+0  38648-2 0  1006
2 48640  53.1595 327.7943 0001113  75.8406 228.5700 15.31613295    14
STARLINK-2754           
1 48641C 21044D   26100.17548611  .00011257  00000+0  37928-3 0  1007
2 48641  53.1600 327.6412 0001329  77.5140  98.6808 15.30195342    17
STARLINK-2646           
1 48642C 21044E   26100.13243056  .00530420  00000+0  17658-1 0  1003
2 48642  53.1602 327.8970 0001318  75.3007 119.1221 15.30324766    19
STARLINK-2704           
1 48643C 21044F   26100.13034722  .00036447  00000+0  12282-2 0  1001
2 48643  53.1589 327.8245 0001233  81.8003 240.4562 15.30178857    17
STARLINK-2695           
1 48644C 21044G   26100.15118056  .00525180  00000+0  17370-1 0  1006
2 48644  53.1606 327.9223 0001570  75.6377 274.4847 15.30536413    13
STARLINK-2732           
1 48646C 21044J   26100.08659722  .00534650  00000+0  17638-1 0  1009
2 48646  53.1590 328.0609 0001086  90.3968  31.7597 15.30614647    11
STARLINK-2521           
1 48648C 21044L   26100.08173611  .00058752  00000+0  19797-2 0  1002
2 48648  53.1579 328.0457 0001149  85.5728  61.6541 15.30169592    16
STARLINK-2673           
1 48649C 21044M   26100.17270833  .00008818  00000+0  28361-3 0  1003
2 48649  53.1593 327.5976 0000946  91.8768 220.4612 15.31693633    14
STARLINK-2672           
1 48650C 21044N   26100.08659722  .00058455  00000+0  19698-2 0  1007
2 48650  53.1575 328.1101 0001293  92.0057  64.5491 15.30167976    10
STARLINK-2731           
1 48651C 21044P   26100.07548611  .00104660  00000+0  35304-2 0  1003
2 48651  53.1577 328.1033 0001411  81.8449  65.7593 15.30111999    10
STARLINK-2727           
1 48652C 21044Q   26100.17270833  .00023428  00000+0  42647-3 0  1004
2 48652  53.0515 322.3742 0001109 171.0587 209.5356 15.48885546    14
STARLINK-2720           
1 48653C 21044R   26100.13868056  .00034479  00000+0  11619-2 0  1003
2 48653  53.1595 327.7847 0001386  81.3501 106.8692 15.30177915    12
STARLINK-2657           
1 48655C 21044T   26100.13798611  .00036240  00000+0  12215-2 0  1005
2 48655  53.1588 327.8933 0001313  83.4750  83.3915 15.30171981    16
STARLINK-2701           
1 48656C 21044U   26100.11506944  .00042604  00000+0  13709-2 0  1000
2 48656  53.1609 327.8821 0001209  80.8003  42.1338 15.31660494    18
STARLINK-2734           
1 48657C 21044V   26100.15395833  .00023090  00000+0  77801-3 0  1000
2 48657  53.1613 327.7014 0001244  76.4945 271.3915 15.30189327    19
STARLINK-2647           
1 48658C 21044W   26100.14631944  .00025806  00000+0  86951-3 0  1009
2 48658  53.1605 327.7325 0001302  77.4367 263.2073 15.30187862    17
STARLINK-2717           
1 48659C 21044X   26100.11159722  .00048271  00000+0  16281-2 0  1005
2 48659  53.1607 327.8941 0001274  84.0425  82.7608 15.30142963    13
STARLINK-2726           
1 48662C 21044AA  26100.10326389  .00050104  00000+0  17331-2 0  1008
2 48662  53.1545 327.7402 0001299  82.2136  73.8015 15.29324202    14
STARLINK-2667           
1 48663C 21044AB  26100.13173611  .00019980  00000+0  67316-3 0  1006
2 48663  53.1595 317.7901 0001268  83.2805 257.8462 15.30193564    10
STARLINK-2666           
1 48666C 21044AE  26100.10048611  .00051692  00000+0  17415-2 0  1007
2 48666  53.1573 327.9597 0001277  84.2195 102.4616 15.30178338    14
STARLINK-2735           
1 48667C 21044AF  26100.16298611  .00014759  00000+0  51030-3 0  1006
2 48667  53.1535 327.4656 0001241  95.3050  87.9785 15.29356366    19
STARLINK-2738           
1 48668C 21044AG  26100.13590278 -.00024644  00000+0 -79253-3 0  1001
2 48668  53.1600 317.8981 0000903  78.6775 273.0435 15.31712487    12
STARLINK-2707           
1 48669C 21044AH  26100.11576389  .00013964  00000+0  44908-3 0  1007
2 48669  53.1597 318.1253 0001231  99.5801  89.5007 15.31693606    17
STARLINK-2763           
1 48670C 21044AJ  26100.12409722  .00025033  00000+0  84342-3 0  1002
2 48670  53.1577 318.1888 0001139  90.9245 103.2581 15.30190595    14
STARLINK-2745           
1 48671C 21044AK  26100.12548611  .00036978  00000+0  12461-2 0  1006
2 48671  53.1574 327.8457 0000980  85.2989 227.5809 15.30177738    13
STARLINK-2705           
1 48672C 21044AL  26100.18104167 -.00007630  00000+0 -25740-3 0  1007
2 48672  53.1590 317.8851 0001353  91.8326 108.6609 15.30164842    11
STARLINK-2711           
1 48673C 21044AM  26100.14701389  .00026205  00000+0  90653-3 0  1005
2 48673  53.1565 327.5567 0001275  79.1735 126.3596 15.29333261    15
STARLINK-2712           
1 48674C 21044AN  26100.18381944  .00000397  00000+0  13392-4 0  1001
2 48674  53.1578 327.5556 0001272  87.8523 250.4067 15.30199939    12
STARLINK-2746           
1 48676C 21044AQ  26100.14840278  .00027745  00000+0  93463-3 0  1001
2 48676  53.1589 327.7228 0001145  82.9338  94.9568 15.30193938    13
STARLINK-2615           
1 48678C 21044AS  26100.10673611  .00038266  00000+0  12890-2 0  1008
2 48678  53.1587 317.7722 0001278  81.1155  87.4870 15.30190455    10
STARLINK-2648           
1 48679C 21044AT  26100.15118056  .00022204  00000+0  76761-3 0  1004
2 48679  53.1567 327.5419 0001000  81.4807 264.7673 15.29357212    16
STARLINK-2725           
1 48681C 21044AV  26100.18729167 -.00029294  00000+0 -98693-3 0  1007
2 48681  53.1578 288.9709 0001226  84.9841 206.3031 15.30219006    19
STARLINK-2743           
1 48682C 21044AW  26100.16159722 -.00029317  00000+0 -98868-3 0  1000
2 48682  53.1579 278.7653 0001017  86.8216 213.7155 15.30186686    17
STARLINK-2756           
1 48683C 21044AX  26100.11854167 -.00020584  00000+0 -69402-3 0  1000
2 48683  53.1587 279.1544 0001207  82.8507  32.4331 15.30189845    13
STARLINK-2741           
1 48684C 21044AY  26100.10326389  .00479640  00000+0  15842-1 0  1006
2 48684  53.1593 292.0138 0001298  72.5051 164.8701 15.30604495    18
STARLINK-2751           
1 48685C 21044AZ  26100.12548611 -.00022405  00000+0 -72114-3 0  1005
2 48685  53.1594 278.9075 0001147  83.0164   8.8954 15.31683974    15
STARLINK-2629           
1 48686C 21044BA  26100.14701389 -.00249620  00000+0 -86295-2 0  1005
2 48686  53.1534 289.1649 0001257  82.4387 218.0127 15.29493965    16
STARLINK-2627           
1 48687C 21044BB  26100.12409722 -.00029324  00000+0 -98828-3 0  1003
2 48687  53.1580 278.9621 0001297  87.0640 238.9679 15.30207572    13
STARLINK-2742           
1 48688C 21044BC  26100.15395833 -.00026538  00000+0 -89161-3 0  1008
2 48688  53.1581 278.9097 0001993  82.2660 338.5425 15.30305824    19
STARLINK-2740           
1 48690C 21044BE  26100.12548611 -.00020801  00000+0 -70076-3 0  1004
2 48690  53.1575 289.3034 0001243  80.5064 212.6596 15.30216951    12
STARLINK-2750           
1 48691C 21044BF  26100.19215278  .00462940  00000+0  15003-1 0  1001
2 48691  53.1591 288.9885 0001283  88.8563 126.6169 15.31222001    13
STARLINK-2752           
1 48692C 21044BG  26100.14631944 -.00026944  00000+0 -86707-3 0  1002
2 48692  53.1591 288.9973 0001278  82.8165 136.5761 15.31692610    13
STARLINK-2618           
1 48693C 21044BH  26100.09770833 -.00031288  00000+0 -10063-2 0  1006
2 48693  53.1586 289.3665 0001292  84.2034 276.5430 15.31713369    11
STARLINK-2748           
1 48694C 21044BJ  26100.11923611 -.00009795  00000+0 -31505-3 0  1007
2 48694  53.1590 292.5086 0001050  84.4790  84.0616 15.31700323    17
STARLINK-2616           
1 48695C 21044BK  26100.09354167  .00033858  00000+0  11404-2 0  1009
2 48695  53.1579 291.9261 0001258  86.7911 253.5576 15.30196438    16
STARLINK-2753           
1 48696C 21044BL  26100.10951389  .00094772  00000+0  31901-2 0  1007
2 48696  53.1593 302.5540 0001382  82.7502 124.7729 15.30185777    15
STARLINK-3004           
1 48880C 21059B   26100.18937500  .00381150  00000+0  22526-1 0  1006
2 48880  97.6591 226.4014 0001684  92.1930 222.1913 15.11379051    13
STARLINK-3005           
1 48881C 21059C   26100.10743056 -.00016029  00000+0 -12503-2 0  1007
2 48881  97.6582 226.2372 0001884  90.7180  82.0313 15.01269973    19
STARLINK-3096           
1 49131C 21082B   26100.17340278  .00579640  00000+0  66532-2 0  1000
2 49131  69.9997 167.2930 0003550 273.7556  55.1982 15.61568654    13
STARLINK-3090           
1 49132C 21082C   26100.12826389  .00044016  00000+0  36899-2 0  1005
2 49132  70.0011 215.0580 0003293 267.3825 337.9240 14.98295658    17
STARLINK-3077           
1 49133C 21082D   26100.17062500  .00073949  00000+0  61975-2 0  1008
2 49133  70.0009 215.0779 0003351 266.3537 117.3421 14.98290706    19
STARLINK-3078           
1 49134C 21082E   26100.11229167  .00043507  00000+0  36470-2 0  1006
2 49134  70.0009 215.2282 0003334 269.5680 182.0649 14.98298218    13
STARLINK-3073           
1 49135C 21082F   26100.13590278  .00055803  00000+0  46761-2 0  1009
2 49135  70.0009 175.1502 0003164 265.7392 113.2064 14.98305690    12
STARLINK-3055           
1 49137C 21082H   26100.20534722  .00050913  00000+0  43554-2 0  1005
2 49137  70.0015 195.8776 0003278 266.7804  77.4426 14.97507274    12
STARLINK-3058           
1 49138C 21082J   26100.18868056  .00068137  00000+0  57104-2 0  1006
2 49138  70.0008 215.0392 0003277 267.2939 258.7639 14.98294445    12
STARLINK-3057           
1 49139C 21082K   26100.20604167  .00014328  00000+0  12004-2 0  1004
2 49139  70.0012 174.9804 0003378 266.3961 175.7504 14.98333722    17
STARLINK-3093           
1 49141C 21082M   26100.10187500  .00036301  00000+0  30415-2 0  1004
2 49141  70.0011 215.2618 0003483 262.0300 178.3193 14.98319231    10
STARLINK-3109           
1 49143C 21082P   26100.20256944  .00166840  00000+0  14295-1 0  1005
2 49143  70.0014 195.8886 0003627 262.4117  88.6770 14.97385990    13
STARLINK-3100           
1 49144C 21082Q   26100.14701389  .00068066  00000+0  57076-2 0  1003
2 49144  70.0013 215.1266 0003436 269.4292  99.4204 14.98272513    19
